#dP2026  5 21  0  0  0.00000000     289 d+D   IGc20 FIT AIUB
## 2419 345600.00000000   300.00000000 61181 0.0000000000000
+  116   G01G02G03G04G05G06G07G08G09G10G11G12G13G14G15G16G17
+        G18G19G20G21G22G23G24G25G26G27G28G29G30G31G32R02R03
+        R04R05R06R07R08R09R11R12R14R15R16R17R18R19R20R21R22
+        R24R26E02E03E04E05E06E07E08E09E10E11E12E13E14E15E16
+        E18E19E21E23E25E26E27E28E29E30E31E32E33E34E36C06C07
+        C08C11C12C13C14C19C20C21C22C23C24C25C26C27C28C29C30
+        C31C32C33C34C35C36C37C38C39C41C42J02J03J04  0  0  0
++         5  5  5  5  5  5  5  5  5  5  5  5  5  5  5  5  5
++         5  5  5  5  5  5  5  5  5  5 10  5  5  5  5  5  5
++         5  5  5  5  5  5  5  5  5  5  5  5  5  5  5  5  5
++         5  5  5  5  5  5  5  5  5  5  5  5  5  5  5  5  5
++         5  5  5  5  5  5  5  5  5  5  5  5  5  5  5  5  5
++         5  5  5  5  5  5  5  5  5  5  5  5  5  5  5  5  5
++         5  5  5  5  5  5  5  5  5  5  5  5  5  5  0  0  0
%c M  cc GPS ccc cccc cccc cccc cccc ccccc ccccc ccccc ccccc
%c cc cc ccc ccc cccc cccc cccc cccc ccccc ccccc ccccc ccccc
%f  1.2500000  1.025000000  0.00000000000  0.000000000000000
%f  0.0000000  0.000000000  0.00000000000  0.000000000000000
%i    0    0    0    0      0      0      0      0         0
%i    0    0    0    0      0      0      0      0         0
/* Center for Orbit Determination in Europe (CODE)                              
/* MGEX orbits and clocks for year-day 2026-1410                                
/* Middle day of a 3-day long-arc multi-GNSS solution                           
/* Systems considered: GPS/GLONASS/Galileo/BeiDou/QZSS                          
/* Product reference - DOI 10.48620/97775                                       
/* PCV:IGS20_2417 OL/AL:FES2014b NONE     YN ORB:CoN CLK:CoN                    
*  2026  5 21  6  5  0.00000000
PG01 -11830.515585 -14457.181575 -18922.334756    269.283352
PG02  -1206.456701 -14956.591644 -21537.480670    102.900586
PG03 -11773.049016 -23851.931997  -1285.661662    455.581154
PG04  -4903.162244 -17094.609549  19702.507842     57.672193
PG05   2704.795564  22291.151623  13982.176734   -233.217807
PG06 -24439.013826   5125.019424   9336.597472   -601.202719
PG07 -23800.677218  -7636.877746  10157.312595   -187.032704
PG08   3291.373042 -23634.839499 -11336.069184    438.728255
PG09 -13191.210037  -7262.940529  21780.852183    747.594606
PG10  15824.123738    423.194287 -21124.881093   -583.752281
PG11 -14042.289530  12324.034200  18899.587967   -333.351181
PG12   9220.423666  24757.823713  -3001.264134   -607.539650
PG13  11291.800019  23735.222732  -3772.979280    314.062186
PG14 -17777.014685  -3211.202754 -19468.780903    746.812839
PG15    170.493050  23897.254053 -12093.153013    413.370291
PG16   4333.409623 -19480.386771  16917.810000    266.905552
PG17 -19006.004744   6596.379023 -17111.393633   -139.427229
PG18  25024.842721   5905.167569   7265.806173   -347.428709
PG19 -19510.600792  14732.980292  -9728.362250    700.270776
PG20  -9110.193438  24240.649849  -5898.160187    163.404440
PG21  -6310.437552  16949.770989  19439.809440    413.686877
PG22 -14867.498511   3563.209892 -21371.813311      1.545097
PG23  18376.998355  12722.731471 -14482.986049    649.809812
PG24   6154.574141  15301.014112 -21409.642178     21.287138
PG25  17337.698278  18613.198972   7683.114541    421.050065
PG26  11617.567489 -10854.561233  21010.756353   -367.209386
PG27  11993.647427 -23386.911599  -1819.734282      0.150658
PG28  24611.748988  -5877.404077   8111.477000   -523.600516
PG29  11727.123320   9700.886807  21722.816362   -317.210387
PG30 -26562.713641   1402.230181  -2115.159628    230.134645
PG31  18464.603444 -10489.016825  15849.136245   -147.761613
PG32  18509.913805 -12037.797285 -14354.407047     65.375635
PR02 -11870.911261   6148.933027  21784.781891     12.202037
PR03  -9490.780402  22086.666539   8660.140641     13.268508
PR04  -2197.108126  23926.016718  -8551.768753    356.385540
PR05   6326.962974  13212.577321 -20874.785577    168.385572
PR06  11735.028174  -4770.014913 -22130.797093    -19.768135
PR07   9510.844529 -21972.043172  -8693.262786    121.670440
PR08   1588.046380 -23822.221335   8998.684797     -4.815462
PR09  18002.345527   4189.997354  17559.902618    327.281552
PR11  -8344.765966 -18199.121673  15834.625420     10.413218
PR12 -18960.994229 -16993.259978  -1464.669381     69.319815
PR14  -6378.712422   9252.097284 -22880.075834     32.595081
PR15   8784.871488  18432.085711 -15255.919439     56.059605
PR16  18988.601709  16913.279194   1729.837334     49.458406
PR17 -17442.334854  11953.718523  14231.828953    297.609959
PR18  -2137.441748  11414.970770  22724.139414    262.407648
PR19  16260.920553   5214.989171  18962.064202     48.123677
PR20  24810.136747  -4340.560778   3925.429421    232.601946
PR21  20111.770831 -10963.580562 -11264.468102   -309.461391
PR22    298.785860 -11413.893456 -22788.604003    126.727435
PR24 -24617.713352   5673.508644  -3433.972007   -166.687269
PR26   3286.969428 -24699.650961   5542.752355 999999.999999
PE02 -16105.626777   5215.122983 -24284.788590     41.532566
PE03 -23327.564749  13108.148566  12623.983041    -18.298383
PE04  16011.004092 -24170.672814   6026.130484   -153.190337
PE05 -16894.574027  -5519.288778  23671.758564     35.929998
PE06   8222.103260 -24442.530945  14527.906794   -273.927810
PE07    510.850391  20979.263598 -20860.666361    -65.148750
PE08 -16174.282157  24055.027095  -5928.399713   -149.527782
PE09   -331.725338 -20929.888484  20941.104084   -296.923261
PE10   -379.949738 -16380.885411 -24659.768173   -793.392460
PE11 -12381.313059 -16740.119251 -21060.891464   5072.843245
PE12  10147.177895 -13822.812349 -24133.656436    -46.785677
PE13  11893.608147  16720.138927  21327.905058    -55.223949
PE14  24080.128797 -15297.475537  13342.188987   3577.420690
PE15 -10841.700888  13484.972331  24018.614975   -259.856513
PE16  -9535.697765 -28029.526019   -570.825489    -33.363898
PE18 -19191.809658   5391.851146 -14658.722011   2802.707050
PE19  23390.171384 -12288.646168 -13351.098230   2972.333522
PE21  17785.032477  16368.385135  17086.258656   -743.838646
PE23  16052.944757  -5246.467318  24306.810787    -35.708815
PE25 -17661.999402 -16898.051812 -16686.255010     21.935644
PE26  27183.318536   9994.461168   6100.016681    310.296383
PE27   8762.788273  28273.411781   -450.345999   -994.297684
PE28  21431.680805 -20228.429935  -2756.375429    -44.934417
PE29  17098.846400   5490.542471 -23530.599307   -208.163132
PE30  -4852.924338  23799.764225 -16931.035286  -1066.753786
PE31   5306.523478 -23304.792423  17468.146741   -142.666332
PE32 -21448.265514  20198.705841   2802.389269     16.609611
PE33  26809.372277  -2245.125945 -12345.191352    -15.672973
PE34 -26729.242465   2403.464485  12476.813411   -255.359978
PE36 -27095.774020 -10139.611185  -6297.121153   -568.467616
PC06  -4578.135824  32242.179816  26932.656524    290.008506
PC07 -18665.268340  19713.592835 -32212.009238    -24.537228
PC08 -21961.151796  34675.813994   8849.372813   -233.757704
PC11  -6206.120999  18851.720420  19621.641096   -675.335307
PC12  -2331.730745  27775.082702   1197.796668    641.903307
PC13 -13434.511858 -10766.196223 -21977.127096   -922.744126
PC14  12545.279034 -18312.466847 -16925.792214   -347.506549
PC19   3827.677905  26264.668592  -8526.459340   -941.432716
PC20  -6954.749134  25829.816178   7862.899265   -909.207574
PC21  14924.906178  -9392.450597 -21634.485289   -853.203947
PC22  13371.752717  11738.353206 -21499.346182    453.847120
PC23 -23938.915747 -14241.486625  -1610.888144   -459.679511
PC24   7973.568540 -14327.774241  22568.918906   -345.904873
PC25 -13223.333872 -20150.071476  14037.325619    862.190018
PC26  21620.537146  -1501.248121  17577.703675   -642.956649
PC27 -25920.690277   8994.865119  -5126.107580    635.385279
PC28 -21722.377267  -2896.384826 -17277.970603    519.605020
PC29   2575.383311  16818.225509  22108.801018    606.482799
PC30 -15869.027258  19221.762404  12548.589462    452.497930
PC31  25494.019653 -10144.414964   5000.498849    803.434040
PC32 -14881.611491   9317.251000  21689.246434   -916.295115
PC33  -3977.064027 -26316.957765   8441.293026   -915.126847
PC34  16309.025698 -19138.130558 -12110.094795    950.423202
PC35  20648.651529   3695.189750  18365.370392   -394.568246
PC36  12353.185121  20472.773009 -14379.254751    279.770106
PC37 -22127.506417    203.112050 -16976.047350   -947.414283
PC38  -4170.023142 -16285.484295 -22292.711412    138.699011
PC39  23719.964265  14678.679806   1212.646075   -864.896785
PC41 -13031.327136 -13151.783340  20942.526277   -941.003710
PC42   8219.603932 -24721.341606 -10044.233158   -892.569309
PJ02 -21818.930112  29054.337699 -16506.792698     -0.225149
PJ03 -29279.073600  23185.512533  24831.141529     -4.115486
PJ04 -30190.510504  28012.290306  14443.011503      0.534379
EOF
